[{"OBJECT_NAME":"BRO-11","OBJECT_ID":"2023-174J","EPOCH":"2026-03-09T23:01:09.890400","MEAN_MOTION":15.26267731,"ECCENTRICITY":0.00104518,"INCLINATION":97.3961,"RA_OF_ASC_NODE":146.7679,"ARG_OF_PERICENTER":189.9892,"MEAN_ANOMALY":170.1141,"EPHEMERIS_TYPE":0,"CLASSIFICATION_TYPE":"U","NORAD_CAT_ID":58264,"ELEMENT_SET_NO":999,"REV_AT_EPOCH":12961,"BSTAR":0.00032296323,"MEAN_MOTION_DOT":8.313e-5,"MEAN_MOTION_DDOT":0},{"OBJECT_NAME":"STARLINK-35400","OBJECT_ID":"2025-253Q","EPOCH":"2026-03-09T10:56:57.687072","MEAN_MOTION":15.27626543,"ECCENTRICITY":0.00048764,"INCLINATION":43.0025,"RA_OF_ASC_NODE":214.2678,"ARG_OF_PERICENTER":154.7515,"MEAN_ANOMALY":205.3576,"EPHEMERIS_TYPE":0,"CLASSIFICATION_TYPE":"U","NORAD_CAT_ID":66333,"ELEMENT_SET_NO":999,"REV_AT_EPOCH":2020,"BSTAR":0.0010820894,"MEAN_MOTION_DOT":0.00029684,"MEAN_MOTION_DDOT":0}]
